[{"OBJECT_NAME":"STARLINK-35255","OBJECT_ID":"2025-207L","EPOCH":"2026-03-09T16:52:45.665184","MEAN_MOTION":15.05644419,"ECCENTRICITY":6.763e-5,"INCLINATION":97.6022,"RA_OF_ASC_NODE":138.68,"ARG_OF_PERICENTER":107.0468,"MEAN_ANOMALY":253.0833,"EPHEMERIS_TYPE":0,"CLASSIFICATION_TYPE":"U","NORAD_CAT_ID":65602,"ELEMENT_SET_NO":999,"REV_AT_EPOCH":2826,"BSTAR":0.00016304298,"MEAN_MOTION_DOT":2.292e-5,"MEAN_MOTION_DDOT":0},{"OBJECT_NAME":"CZ-6A DEB","OBJECT_ID":"2024-140DH","EPOCH":"2026-03-09T14:42:58.375296","MEAN_MOTION":14.89586287,"ECCENTRICITY":0.0114118,"INCLINATION":89.149,"RA_OF_ASC_NODE":291.0293,"ARG_OF_PERICENTER":161.7952,"MEAN_ANOMALY":198.7416,"EPHEMERIS_TYPE":0,"CLASSIFICATION_TYPE":"U","NORAD_CAT_ID":60704,"ELEMENT_SET_NO":999,"REV_AT_EPOCH":8478,"BSTAR":0.0015025,"MEAN_MOTION_DOT":0.00016252,"MEAN_MOTION_DDOT":0}]
